{
    "links": {
        "self": "http://www.neowsapp.com/rest/v1/neo/3471524?api_key=iIulBulltgU6a56xZRHN4H3l9WmuAYTsLGpBGhQ2"
    },
    "id": "3471524",
    "neo_reference_id": "3471524",
    "name": "(2009 TQ8)",
    "designation": "2009 TQ8",
    "nasa_jpl_url": "http://ssd.jpl.nasa.gov/sbdb.cgi?sstr=3471524",
    "absolute_magnitude_h": 24.3,
    "estimated_diameter": {
        "kilometers": {
            "estimated_diameter_min": 0.0366906138,
            "estimated_diameter_max": 0.0820427065
        },
        "meters": {
            "estimated_diameter_min": 36.6906137531,
            "estimated_diameter_max": 82.0427064882
        },
        "miles": {
            "estimated_diameter_min": 0.0227984834,
            "estimated_diameter_max": 0.0509789586
        },
        "feet": {
            "estimated_diameter_min": 120.3760332259,
            "estimated_diameter_max": 269.1689931548
        }
    },
    "is_potentially_hazardous_asteroid": false,
    "close_approach_data": [
        {
            "close_approach_date": "2009-10-30",
            "close_approach_date_full": "2009-Oct-30 05:03",
            "epoch_date_close_approach": 1256878980000,
            "relative_velocity": {
                "kilometers_per_second": "12.744457399",
                "kilometers_per_hour": "45880.0466362826",
                "miles_per_hour": "28508.0767557502"
            },
            "miss_distance": {
                "astronomical": "0.0602749613",
                "lunar": "23.4469599457",
                "kilometers": "9017005.824812431",
                "miles": "5602907.6092603078"
            },
            "orbiting_body": "Earth"
        }
    ],
    "orbital_data": {
        "orbit_id": "9",
        "orbit_determination_date": "2017-04-06 08:59:36",
        "first_observation_date": "2009-10-15",
        "last_observation_date": "2009-10-20",
        "data_arc_in_days": 5,
        "observations_used": 30,
        "orbit_uncertainty": "9",
        "minimum_orbit_intersection": ".00388478",
        "jupiter_tisserand_invariant": "4.935",
        "epoch_osculation": "2455121.5",
        "eccentricity": ".4210401069080933",
        "semi_major_axis": "1.281553254632815",
        "inclination": "13.55967838742517",
        "ascending_node_longitude": "24.94981409358832",
        "orbital_period": "529.9115843786489",
        "perihelion_distance": ".7419679352937993",
        "perihelion_argument": "95.64894986859326",
        "aphelion_distance": "1.82113857397183",
        "perihelion_time": "2455193.509078470577",
        "mean_anomaly": "311.0800121876856",
        "mean_motion": ".6793586149321876",
        "equinox": "J2000",
        "orbit_class": {
            "orbit_class_type": "APO",
            "orbit_class_description": "Near-Earth asteroid orbits which cross the Earth’s orbit similar to that of 1862 Apollo",
            "orbit_class_range": "a (semi-major axis) > 1.0 AU; q (perihelion) < 1.017 AU"
        }
    },
    "is_sentry_object": false
}